OBJECT_NAME,OBJECT_ID,EPOCH,MEAN_MOTION,ECCENTRICITY,INCLINATION,RA_OF_ASC_NODE,ARG_OF_PERICENTER,MEAN_ANOMALY,EPHEMERIS_TYPE,CLASSIFICATION_TYPE,NORAD_CAT_ID,ELEMENT_SET_NO,REV_AT_EPOCH,BSTAR,MEAN_MOTION_DOT,MEAN_MOTION_DDOT
HODOYOSHI-4,2014-033B,2026-07-02T20:02:52.055808,14.88162732,.0022037,97.5449,7.9026,253.2242,106.6558,0,U,40011,999,65113,.11288E-3,.992E-5,0
DEIMOS-2,2014-033D,2026-07-02T20:35:49.740576,14.93766366,.0000861,97.5803,57.7951,73.2595,286.8719,0,U,40013,999,64006,.17394E-3,.1789E-4,0
HODOYOSHI-3,2014-033F,2026-07-02T09:49:03.952128,14.85418387,.0031571,97.6433,345.8382,306.0133,53.8157,0,U,40015,999,64988,.12818E-3,.1061E-4,0
SPOT 7,2014-034A,2026-07-02T20:46:19.060032,14.60971115,.0001434,98.0623,245.9529,96.5132,263.6232,0,U,40053,999,63942,.59332E-4,.245E-5,0
SKYSAT-B,2014-037D,2026-07-02T20:38:22.528608,14.88068363,.000461,98.3846,143.7192,216.2246,143.8657,0,U,40072,999,64829,.17733E-3,.1569E-4,0
WORLDVIEW-3 (WV-3),2014-048A,2026-07-02T19:11:14.853408,14.85048247,.0000295,97.8562,258.4166,168.9876,191.1346,0,U,40115,999,64422,.12649E-3,.1027E-4,0
GAOFEN-2,2014-049A,2026-07-02T20:26:50.229600,14.80913141,.0007265,98.0104,248.0437,171.7272,188.4062,0,U,40118,999,64155,.1577E-4,.68E-6,0
YAOGAN-21,2014-053A,2026-07-02T21:29:03.983136,15.26603726,.0009183,97.1463,223.4571,48.2144,311.9879,0,U,40143,999,65735,.15203E-3,.3915E-4,0
YAOGAN-22,2014-063A,2026-07-02T16:48:08.856000,13.15531196,.000667,100.7745,335.2322,151.5172,208.6305,0,U,40275,999,56185,.33735E-5,-.46E-6,0
ASNARO,2014-070A,2026-07-02T19:57:58.509216,15.19665157,.0006616,97.3447,259.5245,120.8327,239.3560,0,U,40298,999,64638,.31803E-3,.6722E-4,0
YAOGAN-24,2014-072A,2026-07-02T21:01:06.845088,14.76105421,.0013617,98.1512,321.3464,210.0040,150.0390,0,U,40310,999,62603,.15048E-3,.987E-5,0
CBERS 4,2014-079A,2026-07-02T20:37:43.537152,14.35512590,.0001312,98.3524,240.1990,52.0813,308.0491,0,U,40336,999,60620,-.17743E-4,-.93E-6,0
YAOGAN-26,2014-088A,2026-07-02T20:16:59.453184,15.47993117,.0003912,97.0640,183.6929,30.7658,329.3822,0,U,40362,999,64012,.48451E-3,.25278E-3,0
SMAP,2015-003A,2026-07-02T19:21:11.601792,14.63380832,.0001483,98.1277,190.6796,97.6304,262.5066,0,U,40376,999,60990,.11126E-3,.528E-5,0
KOMPSAT-3A,2015-014A,2026-07-02T21:15:14.296896,15.54795893,.0057125,97.6887,176.4043,118.7593,241.9416,0,U,40536,999,62425,.45506E-3,.32527E-3,0
SENTINEL-2A,2015-028A,2026-07-02T19:25:06.118176,14.30819927,.0001204,98.5685,258.4389,95.2595,264.8726,0,U,40697,999,57596,.86482E-4,.183E-5,0
GAOFEN-8,2015-030A,2026-07-02T21:04:55.149312,15.46538146,.0009693,97.6894,18.1955,133.6491,226.5562,0,U,40701,999,61387,.48339E-3,.24005E-3,0
CARBONITE 1 (CBNT-1),2015-032D,2026-07-02T19:54:43.883712,14.83634205,.0013043,97.6508,1.2413,241.1924,118.7981,0,U,40718,999,59166,.2035E-3,.163E-4,0
YAOGAN-27,2015-040A,2026-07-02T22:00:20.934144,13.16072014,.0008176,100.1158,169.6174,172.7472,187.3762,0,U,40878,999,51973,.25555E-3,.55E-6,0
GAOFEN-9 01,2015-047A,2026-07-02T20:27:11.983392,14.82915349,.0028899,97.6268,218.8348,88.9278,271.5247,0,U,40894,999,58251,.14938E-3,.1169E-4,0
YAOGAN-28,2015-064A,2026-07-02T20:21:22.674240,15.27623973,.0011792,97.3099,321.7936,131.3645,228.8611,0,U,41026,999,59307,.30117E-3,.8077E-4,0
YAOGAN-29,2015-069A,2026-07-02T19:55:41.762208,14.83097000,.0001663,98.0017,212.4872,30.4015,329.7294,0,U,41038,999,57294,.54774E-4,.392E-5,0
KENT RIDGE 1,2015-077B,2026-07-02T13:15:07.930368,15.23222620,.0008149,14.9783,151.7072,96.0484,264.0766,0,U,41167,999,58344,.15511E-3,.4552E-4,0
GAOFEN-4,2015-083A,2026-07-01T14:31:54.862176,1.00268667,.00042432,0.3936,83.8387,111.7154,47.7566,0,U,41194,999,3867,0,-.324E-5,0
JASON-3,2016-002A,2026-07-02T20:20:17.132064,12.87623298,.0008309,66.0417,92.9125,271.8737,88.1330,0,U,41240,999,48926,.10633E-3,-.35E-6,0
SENTINEL-3A,2016-011A,2026-07-02T18:50:58.903008,14.26737056,.0001425,98.6243,250.9446,94.5446,265.5897,0,U,41335,999,54028,.74151E-4,.136E-5,0
ZIYUAN 3-02 (ZY 3-02),2016-033A,2026-07-02T20:16:11.084736,15.21330086,.0012885,97.3831,259.3177,230.0003,130.0102,0,U,41556,999,56036,.26983E-3,.5985E-4,0
CARTOSAT-2C,2016-040A,2026-07-02T09:45:52.812864,15.19310275,.0010537,97.4476,243.1756,85.9757,274.2682,0,U,41599,999,55602,.16404E-3,.3399E-4,0
SKYSAT-C1,2016-040C,2026-07-02T00:00:55.848096,15.36552453,.00018777,96.9550,213.9188,25.1186,335.0150,0,U,41601,999,56014,.30140118E-3,.10682E-3,0
LAPAN-A3,2016-040E,2026-07-02T20:31:41.803680,15.33208012,.0008955,97.1492,179.4873,328.9678,31.1035,0,U,41603,999,55721,.13721E-3,.4331E-4,0
GAOFEN-3,2016-049A,2026-07-02T19:59:12.102144,14.42217014,.0001695,98.4007,191.3823,94.0944,266.0439,0,U,41727,999,52090,-.12203E-4,-.84E-6,0
