HODOYOSHI-4             
1 40011U 14033B   26183.83532472  .00000992  00000+0  11288-3 0  9993
2 40011  97.5449   7.9026 0022037 253.2242 106.6558 14.88162732651133
DEIMOS-2                
1 40013U 14033D   26183.85821459  .00001789  00000+0  17394-3 0  9992
2 40013  97.5803  57.7951 0000861  73.2595 286.8719 14.93766366640060
HODOYOSHI-3             
1 40015U 14033F   26183.40907352  .00001061  00000+0  12818-3 0  9991
2 40015  97.6433 345.8382 0031571 306.0133  53.8157 14.85418387649883
SPOT 7                  
1 40053U 14034A   26183.86549838  .00000245  00000+0  59332-4 0  9991
2 40053  98.0623 245.9529 0001434  96.5132 263.6232 14.60971115639429
SKYSAT-B                
1 40072U 14037D   26183.85998297  .00001569  00000+0  17733-3 0  9999
2 40072  98.3846 143.7192 0004610 216.2246 143.8657 14.88068363648294
WORLDVIEW-3 (WV-3)      
1 40115U 14048A   26183.79947747  .00001027  00000+0  12649-3 0  9996
2 40115  97.8562 258.4166 0000295 168.9876 191.1346 14.85048247644229
GAOFEN-2                
1 40118U 14049A   26183.85197025  .00000068  00000+0  15770-4 0  9996
2 40118  98.0104 248.0437 0007265 171.7272 188.4062 14.80913141641555
YAOGAN-21               
1 40143U 14053A   26183.89518499  .00003915  00000+0  15203-3 0  9999
2 40143  97.1463 223.4571 0009183  48.2144 311.9879 15.26603726657354
YAOGAN-22               
1 40275U 14063A   26183.70010250 -.00000046  00000+0  33735-5 0  9993
2 40275 100.7745 335.2322 0006670 151.5172 208.6305 13.15531196561859
ASNARO                  
1 40298U 14070A   26183.83192719  .00006722  00000+0  31803-3 0  9999
2 40298  97.3447 259.5245 0006616 120.8327 239.3560 15.19665157646384
YAOGAN-24               
1 40310U 14072A   26183.87577367  .00000987  00000+0  15048-3 0  9996
2 40310  98.1512 321.3464 0013617 210.0040 150.0390 14.76105421626030
CBERS 4                 
1 40336U 14079A   26183.85953168 -.00000093  00000+0 -17743-4 0  9991
2 40336  98.3524 240.1990 0001312  52.0813 308.0491 14.35512590606204
YAOGAN-26               
1 40362U 14088A   26183.84513256  .00025278  00000+0  48451-3 0  9998
2 40362  97.0640 183.6929 0003912  30.7658 329.3822 15.47993117640124
SMAP                    
1 40376U 15003A   26183.80638428  .00000528  00000+0  11126-3 0  9996
2 40376  98.1277 190.6796 0001483  97.6304 262.5066 14.63380832609908
KOMPSAT-3A              
1 40536U 15014A   26183.88558214  .00032527  00000+0  45506-3 0  9991
2 40536  97.6887 176.4043 0057125 118.7593 241.9416 15.54795893624256
SENTINEL-2A             
1 40697U 15028A   26183.80909859  .00000183  00000+0  86482-4 0  9993
2 40697  98.5685 258.4389 0001204  95.2595 264.8726 14.30819927575961
GAOFEN-8                
1 40701U 15030A   26183.87841608  .00024005  00000+0  48339-3 0  9993
2 40701  97.6894  18.1955 0009693 133.6491 226.5562 15.46538146613876
CARBONITE 1 (CBNT-1)    
1 40718U 15032D   26183.82967458  .00001630  00000+0  20350-3 0  9992
2 40718  97.6508   1.2413 0013043 241.1924 118.7981 14.83634205591660
YAOGAN-27               
1 40878U 15040A   26183.91690896  .00000055  00000+0  25555-3 0  9999
2 40878 100.1158 169.6174 0008176 172.7472 187.3762 13.16072014519735
GAOFEN-9 01             
1 40894U 15047A   26183.85222203  .00001169  00000+0  14938-3 0  9990
2 40894  97.6268 218.8348 0028899  88.9278 271.5247 14.82915349582512
YAOGAN-28               
1 41026U 15064A   26183.84817910  .00008077  00000+0  30117-3 0  9993
2 41026  97.3099 321.7936 0011792 131.3645 228.8611 15.27623973593073
YAOGAN-29               
1 41038U 15069A   26183.83034447  .00000392  00000+0  54774-4 0  9994
2 41038  98.0017 212.4872 0001663  30.4015 329.7294 14.83097000572943
KENT RIDGE 1            
1 41167U 15077B   26183.55217512  .00004552  00000+0  15511-3 0  9998
2 41167  14.9783 151.7072 0008149  96.0484 264.0766 15.23222620583449
GAOFEN-4                
1 41194U 15083A   26182.60549609 -.00000324  00000+0  00000+0 0  9992
2 41194   0.3936  83.8387 0004243 111.7154  47.7566  1.00268667 38677
JASON-3                 
1 41240U 16002A   26183.84742051 -.00000035  00000+0  10633-3 0  9995
2 41240  66.0417  92.9125 0008309 271.8737  88.1330 12.87623298489260
SENTINEL-3A             
1 41335U 16011A   26183.78540397  .00000136  00000+0  74151-4 0  9999
2 41335  98.6243 250.9446 0001425  94.5446 265.5897 14.26737056540286
ZIYUAN 3-02 (ZY 3-02)   
1 41556U 16033A   26183.84457274  .00005985  00000+0  26983-3 0  9992
2 41556  97.3831 259.3177 0012885 230.0003 130.0102 15.21330086560366
CARTOSAT-2C             
1 41599U 16040A   26183.40686126  .00003399  00000+0  16404-3 0  9993
2 41599  97.4476 243.1756 0010537  85.9757 274.2682 15.19310275556025
SKYSAT-C1               
1 41601U 16040C   26183.00064639  .00010682  00000+0  30140-3 0  9998
2 41601  96.9550 213.9188 0001877  25.1186 335.0150 15.36552453560148
LAPAN-A3                
1 41603U 16040E   26183.85534495  .00004331  00000+0  13721-3 0  9995
2 41603  97.1492 179.4873 0008955 328.9678  31.1035 15.33208012557215
GAOFEN-3                
1 41727U 16049A   26183.83277896 -.00000084  00000+0 -12203-4 0  9996
2 41727  98.4007 191.3823 0001695  94.0944 266.0439 14.42217014520901
